SHENZHOU-21 (SZ-21)     
1 66263U 25246A   25309.12015811  .00029261  00000+0  34889-3 0  9994
2 66263  41.4669 245.1647 0006174 325.3415  34.7020 15.60401863258134
CZ-2F R/B               
1 66264U 25246B   25309.24721292 -.00002416  76447-5  00000+0 0  9997
2 66264  41.4649 242.5240 0090583 160.7113 199.7206 16.08965583   743
