CCSDS_OMM_VERS = 2.0
CREATION_DATE  = 
ORIGINATOR     = 

OBJECT_NAME    = SHENZHOU-21 (SZ-21)
OBJECT_ID      = 2025-246A
CENTER_NAME    = EARTH
REF_FRAME      = TEME
TIME_SYSTEM    = UTC
MEAN_ELEMENT_THEORY = SGP/SGP4

EPOCH          = 2025-11-05T02:53:01.660704
MEAN_MOTION    = 15.60401863
ECCENTRICITY   = .00061741
INCLINATION    = 41.4669
RA_OF_ASC_NODE = 245.1647
ARG_OF_PERICENTER = 325.3415
MEAN_ANOMALY   = 34.7020

EPHEMERIS_TYPE = 0
CLASSIFICATION_TYPE = U
NORAD_CAT_ID   = 66263
ELEMENT_SET_NO = 999
REV_AT_EPOCH   = 25813
BSTAR          = .3488856E-3
MEAN_MOTION_DOT = .29261E-3
MEAN_MOTION_DDOT = 0

CCSDS_OMM_VERS = 2.0
CREATION_DATE  = 
ORIGINATOR     = 

OBJECT_NAME    = CZ-2F R/B
OBJECT_ID      = 2025-246B
CENTER_NAME    = EARTH
REF_FRAME      = TEME
TIME_SYSTEM    = UTC
MEAN_ELEMENT_THEORY = SGP/SGP4

EPOCH          = 2025-11-05T05:55:59.196288
MEAN_MOTION    = 16.08965583
ECCENTRICITY   = .0090583
INCLINATION    = 41.4649
RA_OF_ASC_NODE = 242.5240
ARG_OF_PERICENTER = 160.7113
MEAN_ANOMALY   = 199.7206

EPHEMERIS_TYPE = 0
CLASSIFICATION_TYPE = U
NORAD_CAT_ID   = 66264
ELEMENT_SET_NO = 999
REV_AT_EPOCH   = 74
BSTAR          = 0
MEAN_MOTION_DOT = -.2416E-4
MEAN_MOTION_DDOT = .76447E-5

